[{"OBJECT_NAME":"IRIDE-MS2-HEO-8","OBJECT_ID":"2025-135BM","EPOCH":"2026-03-09T23:04:08.225184","MEAN_MOTION":14.94180464,"ECCENTRICITY":0.0003471,"INCLINATION":97.7603,"RA_OF_ASC_NODE":184.687,"ARG_OF_PERICENTER":319.3554,"MEAN_ANOMALY":40.7407,"EPHEMERIS_TYPE":0,"CLASSIFICATION_TYPE":"U","NORAD_CAT_ID":64587,"ELEMENT_SET_NO":999,"REV_AT_EPOCH":3909,"BSTAR":0.00027897299,"MEAN_MOTION_DOT":2.931e-5,"MEAN_MOTION_DDOT":0},{"OBJECT_NAME":"USA 142 DEB","OBJECT_ID":"1999-017E","EPOCH":"2026-03-09T01:59:09.811680","MEAN_MOTION":14.46333103,"ECCENTRICITY":0.07685887,"INCLINATION":28.8715,"RA_OF_ASC_NODE":82.1628,"ARG_OF_PERICENTER":170.7955,"MEAN_ANOMALY":190.7642,"EPHEMERIS_TYPE":0,"CLASSIFICATION_TYPE":"U","NORAD_CAT_ID":25675,"ELEMENT_SET_NO":999,"REV_AT_EPOCH":12979,"BSTAR":0.011133012,"MEAN_MOTION_DOT":0.05645123,"MEAN_MOTION_DDOT":-4.856194e-6}]
